{
  "type": "FeatureCollection",
  "features": [
    {
      "type": "Feature",
      "properties": {
        "norad_id": 38833,
        "name": "GPS BIIF-3  (PRN 24)",
        "group": "gps-ops",
        "lat": -53.53747835092527,
        "lon": 61.388915601936965,
        "alt_km": 20605.4037774388,
        "timestamp": "2025-12-21T16:47:54.997071+00:00",
        "meta_object_name": "GPS BIIF-3  (PRN 24)",
        "meta_object_id": "2012-053A",
        "meta_epoch": "2025-12-21T07:50:41.137728",
        "meta_mean_motion": 2.00565076,
        "meta_eccentricity": 0.0176016,
        "meta_inclination": 53.5593,
        "meta_ra_of_asc_node": 150.887,
        "meta_arg_of_pericenter": 64.1244,
        "meta_mean_anomaly": 297.6553,
        "meta_ephemeris_type": 0,
        "meta_classification_type": "U",
        "meta_norad_cat_id": 38833,
        "meta_element_set_no": 999,
        "meta_rev_at_epoch": 9587,
        "meta_bstar": 0,
        "meta_mean_motion_dot": 6e-07,
        "meta_mean_motion_ddot": 0,
        "tle_line1": "1 38833U 12053A   25355.32686502  .00000060  00000+0  00000+0 0  9992",
        "tle_line2": "2 38833  53.5593 150.8870 0176016  64.1244 297.6553  2.00565076 95875"
      },
      "geometry": {
        "type": "Point",
        "coordinates": [
          61.388915601936965,
          -53.53747835092527
        ]
      }
    },
    {
      "type": "Feature",
      "properties": {
        "norad_id": 39166,
        "name": "GPS BIIF-4  (PRN 27)",
        "group": "gps-ops",
        "lat": 6.221423308684136,
        "lon": -79.3725590252655,
        "alt_km": 19902.28502397488,
        "timestamp": "2025-12-21T16:47:54.997082+00:00",
        "meta_object_name": "GPS BIIF-4  (PRN 27)",
        "meta_object_id": "2013-023A",
        "meta_epoch": "2025-12-21T04:35:02.241024",
        "meta_mean_motion": 2.00564674,
        "meta_eccentricity": 0.0138431,
        "meta_inclination": 54.6447,
        "meta_ra_of_asc_node": 276.2247,
        "meta_arg_of_pericenter": 48.7169,
        "meta_mean_anomaly": 312.5052,
        "meta_ephemeris_type": 0,
        "meta_classification_type": "U",
        "meta_norad_cat_id": 39166,
        "meta_element_set_no": 999,
        "meta_rev_at_epoch": 9231,
        "meta_bstar": 0,
        "meta_mean_motion_dot": -1.7e-07,
        "meta_mean_motion_ddot": 0,
        "tle_line1": "1 39166U 13023A   25355.19099816 -.00000017  00000+0  00000+0 0  9994",
        "tle_line2": "2 39166  54.6447 276.2247 0138431  48.7169 312.5052  2.00564674 92319"
      },
      "geometry": {
        "type": "Point",
        "coordinates": [
          -79.3725590252655,
          6.221423308684136
        ]
      }
    },
    {
      "type": "Feature",
      "properties": {
        "norad_id": 39533,
        "name": "GPS BIIF-5  (PRN 30)",
        "group": "gps-ops",
        "lat": 9.490264873090348,
        "lon": 163.6251632969212,
        "alt_km": 20355.77725785931,
        "timestamp": "2025-12-21T16:47:54.997093+00:00",
        "meta_object_name": "GPS BIIF-5  (PRN 30)",
        "meta_object_id": "2014-008A",
        "meta_epoch": "2025-12-20T04:30:10.868256",
        "meta_mean_motion": 2.00559606,
        "meta_eccentricity": 0.00799985,
        "meta_inclination": 53.6333,
        "meta_ra_of_asc_node": 156.6204,
        "meta_arg_of_pericenter": 226.3975,
        "meta_mean_anomaly": 132.9264,
        "meta_ephemeris_type": 0,
        "meta_classification_type": "U",
        "meta_norad_cat_id": 39533,
        "meta_element_set_no": 999,
        "meta_rev_at_epoch": 8609,
        "meta_bstar": 0,
        "meta_mean_motion_dot": 6.4e-07,
        "meta_mean_motion_ddot": 0,
        "tle_line1": "1 39533U 14008A   25354.18762579  .00000064  00000+0  00000+0 0  9998",
        "tle_line2": "2 39533  53.6333 156.6204 0079998 226.3975 132.9264  2.00559606 86091"
      },
      "geometry": {
        "type": "Point",
        "coordinates": [
          163.6251632969212,
          9.490264873090348
        ]
      }
    },
    {
      "type": "Feature",
      "properties": {
        "norad_id": 39741,
        "name": "GPS BIIF-6  (PRN 06)",
        "group": "gps-ops",
        "lat": 11.090555413702894,
        "lon": 150.97866195940531,
        "alt_km": 20273.85227776236,
        "timestamp": "2025-12-21T16:47:54.997105+00:00",
        "meta_object_name": "GPS BIIF-6  (PRN 06)",
        "meta_object_id": "2014-026A",
        "meta_epoch": "2025-12-18T23:24:45.525888",
        "meta_mean_motion": 2.00561009,
        "meta_eccentricity": 0.00393411,
        "meta_inclination": 56.5812,
        "meta_ra_of_asc_node": 338.5339,
        "meta_arg_of_pericenter": 319.0443,
        "meta_mean_anomaly": 40.6665,
        "meta_ephemeris_type": 0,
        "meta_classification_type": "U",
        "meta_norad_cat_id": 39741,
        "meta_element_set_no": 999,
        "meta_rev_at_epoch": 8492,
        "meta_bstar": 0,
        "meta_mean_motion_dot": -8.1e-07,
        "meta_mean_motion_ddot": 0,
        "tle_line1": "1 39741U 14026A   25352.97552692 -.00000081  00000+0  00000+0 0  9997",
        "tle_line2": "2 39741  56.5812 338.5339 0039341 319.0443  40.6665  2.00561009 84924"
      },
      "geometry": {
        "type": "Point",
        "coordinates": [
          150.97866195940531,
          11.090555413702894
        ]
      }
    },
    {
      "type": "Feature",
      "properties": {
        "norad_id": 40105,
        "name": "GPS BIIF-7  (PRN 09)",
        "group": "gps-ops",
        "lat": 52.6735054542938,
        "lon": -149.89657175858818,
        "alt_km": 20092.22913780515,
        "timestamp": "2025-12-21T16:47:54.997116+00:00",
        "meta_object_name": "GPS BIIF-7  (PRN 09)",
        "meta_object_id": "2014-045A",
        "meta_epoch": "2025-12-21T01:21:54.489888",
        "meta_mean_motion": 2.00573117,
        "meta_eccentricity": 0.0032455,
        "meta_inclination": 55.2339,
        "meta_ra_of_asc_node": 95.5671,
        "meta_arg_of_pericenter": 120.1188,
        "meta_mean_anomaly": 240.1998,
        "meta_ephemeris_type": 0,
        "meta_classification_type": "U",
        "meta_norad_cat_id": 40105,
        "meta_element_set_no": 999,
        "meta_rev_at_epoch": 8250,
        "meta_bstar": 0,
        "meta_mean_motion_dot": -1.2e-07,
        "meta_mean_motion_ddot": 0,
        "tle_line1": "1 40105U 14045A   25355.05688067 -.00000012  00000+0  00000+0 0  9996",
        "tle_line2": "2 40105  55.2339  95.5671 0032455 120.1188 240.1998  2.00573117 82506"
      },
      "geometry": {
        "type": "Point",
        "coordinates": [
          -149.89657175858818,
          52.6735054542938
        ]
      }
    },
    {
      "type": "Feature",
      "properties": {
        "norad_id": 40294,
        "name": "GPS BIIF-8  (PRN 03)",
        "group": "gps-ops",
        "lat": -11.2757899476385,
        "lon": -134.70150346065566,
        "alt_km": 20274.80461728243,
        "timestamp": "2025-12-21T16:47:54.997127+00:00",
        "meta_object_name": "GPS BIIF-8  (PRN 03)",
        "meta_object_id": "2014-068A",
        "meta_epoch": "2025-12-21T10:24:33.832224",
        "meta_mean_motion": 2.00565456,
        "meta_eccentricity": 0.0060815,
        "meta_inclination": 56.8641,
        "meta_ra_of_asc_node": 37.8098,
        "meta_arg_of_pericenter": 69.0115,
        "meta_mean_anomaly": 291.7086,
        "meta_ephemeris_type": 0,
        "meta_classification_type": "U",
        "meta_norad_cat_id": 40294,
        "meta_element_set_no": 999,
        "meta_rev_at_epoch": 8164,
        "meta_bstar": 0,
        "meta_mean_motion_dot": -5.2e-07,
        "meta_mean_motion_ddot": 0,
        "tle_line1": "1 40294U 14068A   25355.43372491 -.00000052  00000+0  00000+0 0  9997",
        "tle_line2": "2 40294  56.8641  37.8098 0060815  69.0115 291.7086  2.00565456 81643"
      },
      "geometry": {
        "type": "Point",
        "coordinates": [
          -134.70150346065566,
          -11.2757899476385
        ]
      }
    },
    {
      "type": "Feature",
      "properties": {
        "norad_id": 40534,
        "name": "GPS BIIF-9  (PRN 26)",
        "group": "gps-ops",
        "lat": 51.965473294263504,
        "lon": -41.62980880090651,
        "alt_km": 20037.681541909413,
        "timestamp": "2025-12-21T16:47:54.997138+00:00",
        "meta_object_name": "GPS BIIF-9  (PRN 26)",
        "meta_object_id": "2015-013A",
        "meta_epoch": "2025-12-21T01:33:43.050240",
        "meta_mean_motion": 2.00562033,
        "meta_eccentricity": 0.0107387,
        "meta_inclination": 53.1966,
        "meta_ra_of_asc_node": 211.5453,
        "meta_arg_of_pericenter": 38.6862,
        "meta_mean_anomaly": 322.1684,
        "meta_ephemeris_type": 0,
        "meta_classification_type": "U",
        "meta_norad_cat_id": 40534,
        "meta_element_set_no": 999,
        "meta_rev_at_epoch": 7825,
        "meta_bstar": 0,
        "meta_mean_motion_dot": 7.9e-07,
        "meta_mean_motion_ddot": 0,
        "tle_line1": "1 40534U 15013A   25355.06508160  .00000079  00000+0  00000+0 0  9996",
        "tle_line2": "2 40534  53.1966 211.5453 0107387  38.6862 322.1684  2.00562033 78257"
      },
      "geometry": {
        "type": "Point",
        "coordinates": [
          -41.62980880090651,
          51.965473294263504
        ]
      }
    }
  ]
}